{
  "type": "FeatureCollection",
  "features": [
    {
      "type": "Feature",
      "properties": {
        "norad_id": 66647,
        "name": "COSMOS 2597 (RODNIK-S 22)",
        "group": "last-30-days",
        "lat": -56.4590303012978,
        "lon": 113.79178469221853,
        "alt_km": 1500.3380832275452,
        "timestamp": "2025-12-19T08:58:48.082888+00:00",
        "meta_object_name": "COSMOS 2597 (RODNIK-S 22)",
        "meta_object_id": "2025-273A",
        "meta_epoch": "2025-12-18T22:02:21.609888",
        "meta_mean_motion": 12.41952008,
        "meta_eccentricity": 0.00076454,
        "meta_inclination": 82.4992,
        "meta_ra_of_asc_node": 282.6124,
        "meta_arg_of_pericenter": 272.0822,
        "meta_mean_anomaly": 87.9382,
        "meta_ephemeris_type": 0,
        "meta_classification_type": "U",
        "meta_norad_cat_id": 66647,
        "meta_element_set_no": 999,
        "meta_rev_at_epoch": 290,
        "meta_bstar": -6.0147125e-05,
        "meta_mean_motion_dot": 2e-08,
        "meta_mean_motion_ddot": 0,
        "tle_line1": "1 66647U 25273A   25352.91830567  .00000002  00000+0 -60147-4 0  9998",
        "tle_line2": "2 66647  82.4992 282.6124 0007645 272.0822  87.9382 12.41952008  2905"
      },
      "geometry": {
        "type": "Point",
        "coordinates": [
          113.79178469221853,
          -56.4590303012978
        ]
      }
    },
    {
      "type": "Feature",
      "properties": {
        "norad_id": 66648,
        "name": "COSMOS 2598 (RODNIK-S 23)",
        "group": "last-30-days",
        "lat": -55.75875026795504,
        "lon": -88.8316102468099,
        "alt_km": 1499.0667141376916,
        "timestamp": "2025-12-19T08:58:48.082916+00:00",
        "meta_object_name": "COSMOS 2598 (RODNIK-S 23)",
        "meta_object_id": "2025-273B",
        "meta_epoch": "2025-12-18T21:41:42.523296",
        "meta_mean_motion": 12.43233471,
        "meta_eccentricity": 0.00080638,
        "meta_inclination": 82.5031,
        "meta_ra_of_asc_node": 282.6146,
        "meta_arg_of_pericenter": 222.13,
        "meta_mean_anomaly": 137.9161,
        "meta_ephemeris_type": 0,
        "meta_classification_type": "U",
        "meta_norad_cat_id": 66648,
        "meta_element_set_no": 999,
        "meta_rev_at_epoch": 290,
        "meta_bstar": -7.302299e-06,
        "meta_mean_motion_dot": 9e-08,
        "meta_mean_motion_ddot": 0,
        "tle_line1": "1 66648U 25273B   25352.90396439  .00000009  00000+0 -73023-5 0  9998",
        "tle_line2": "2 66648  82.5031 282.6146 0008063 222.1300 137.9161 12.43233471  2906"
      },
      "geometry": {
        "type": "Point",
        "coordinates": [
          -88.8316102468099,
          -55.75875026795504
        ]
      }
    },
    {
      "type": "Feature",
      "properties": {
        "norad_id": 66649,
        "name": "COSMOS 2599 (RODNIK-S 24)",
        "group": "last-30-days",
        "lat": -19.3123329294087,
        "lon": 105.0004599135267,
        "alt_km": 1504.350989537068,
        "timestamp": "2025-12-19T08:58:48.082935+00:00",
        "meta_object_name": "COSMOS 2599 (RODNIK-S 24)",
        "meta_object_id": "2025-273C",
        "meta_epoch": "2025-12-18T22:14:06.919008",
        "meta_mean_motion": 12.41150968,
        "meta_eccentricity": 0.00062754,
        "meta_inclination": 82.5048,
        "meta_ra_of_asc_node": 282.6337,
        "meta_arg_of_pericenter": 263.4082,
        "meta_mean_anomaly": 96.6282,
        "meta_ephemeris_type": 0,
        "meta_classification_type": "U",
        "meta_norad_cat_id": 66649,
        "meta_element_set_no": 999,
        "meta_rev_at_epoch": 290,
        "meta_bstar": -3.6568871e-05,
        "meta_mean_motion_dot": 5e-08,
        "meta_mean_motion_ddot": 0,
        "tle_line1": "1 66649U 25273C   25352.92646897  .00000005  00000+0 -36569-4 0  9996",
        "tle_line2": "2 66649  82.5048 282.6337 0006275 263.4082  96.6282 12.41150968  2907"
      },
      "geometry": {
        "type": "Point",
        "coordinates": [
          105.0004599135267,
          -19.3123329294087
        ]
      }
    },
    {
      "type": "Feature",
      "properties": {
        "norad_id": 66650,
        "name": "BEE-1000",
        "group": "last-30-days",
        "lat": -74.91777530498808,
        "lon": 70.1290322692994,
        "alt_km": 593.587095556979,
        "timestamp": "2025-12-19T08:58:48.082967+00:00",
        "meta_object_name": "BEE-1000",
        "meta_object_id": "2025-274A",
        "meta_epoch": "2025-12-18T20:33:42.350688",
        "meta_mean_motion": 14.916814,
        "meta_eccentricity": 0.00106541,
        "meta_inclination": 97.74,
        "meta_ra_of_asc_node": 279.9321,
        "meta_arg_of_pericenter": 228.6345,
        "meta_mean_anomaly": 131.3958,
        "meta_ephemeris_type": 0,
        "meta_classification_type": "U",
        "meta_norad_cat_id": 66650,
        "meta_element_set_no": 999,
        "meta_rev_at_epoch": 331,
        "meta_bstar": 0.00011026298,
        "meta_mean_motion_dot": 1.054e-05,
        "meta_mean_motion_ddot": 0,
        "tle_line1": "1 66650U 25274A   25352.85674017  .00001054  00000+0  11026-3 0  9990",
        "tle_line2": "2 66650  97.7400 279.9321 0010654 228.6345 131.3958 14.91681400  3312"
      },
      "geometry": {
        "type": "Point",
        "coordinates": [
          70.1290322692994,
          -74.91777530498808
        ]
      }
    },
    {
      "type": "Feature",
      "properties": {
        "norad_id": 66651,
        "name": "2025-274B",
        "group": "last-30-days",
        "lat": -81.08566264280334,
        "lon": 40.32501406065081,
        "alt_km": 593.6738417953275,
        "timestamp": "2025-12-19T08:58:48.082983+00:00",
        "meta_object_name": "2025-274B",
        "meta_object_id": "2025-274B",
        "meta_epoch": "2025-12-18T18:54:54.289440",
        "meta_mean_motion": 14.91839474,
        "meta_eccentricity": 0.00109219,
        "meta_inclination": 97.7394,
        "meta_ra_of_asc_node": 279.8668,
        "meta_arg_of_pericenter": 227.976,
        "meta_mean_anomaly": 132.0529,
        "meta_ephemeris_type": 0,
        "meta_classification_type": "U",
        "meta_norad_cat_id": 66651,
        "meta_element_set_no": 999,
        "meta_rev_at_epoch": 330,
        "meta_bstar": 0.00023159462,
        "meta_mean_motion_dot": 2.284e-05,
        "meta_mean_motion_ddot": 0,
        "tle_line1": "1 66651U 25274B   25352.78812835  .00002284  00000+0  23159-3 0  9991",
        "tle_line2": "2 66651  97.7394 279.8668 0010921 227.9760 132.0529 14.91839474  3305"
      },
      "geometry": {
        "type": "Point",
        "coordinates": [
          40.32501406065081,
          -81.08566264280334
        ]
      }
    },
    {
      "type": "Feature",
      "properties": {
        "norad_id": 66652,
        "name": "2025-274C",
        "group": "last-30-days",
        "lat": -80.46891622763593,
        "lon": -25.450860861848586,
        "alt_km": 593.8458506964489,
        "timestamp": "2025-12-19T08:58:48.082994+00:00",
        "meta_object_name": "2025-274C",
        "meta_object_id": "2025-274C",
        "meta_epoch": "2025-12-18T18:52:16.086720",
        "meta_mean_motion": 14.9193383,
        "meta_eccentricity": 0.00105386,
        "meta_inclination": 97.74,
        "meta_ra_of_asc_node": 279.8704,
        "meta_arg_of_pericenter": 234.9183,
        "meta_mean_anomaly": 125.1049,
        "meta_ephemeris_type": 0,
        "meta_classification_type": "U",
        "meta_norad_cat_id": 66652,
        "meta_element_set_no": 999,
        "meta_rev_at_epoch": 330,
        "meta_bstar": 0.00017679469,
        "meta_mean_motion_dot": 1.735e-05,
        "meta_mean_motion_ddot": 0,
        "tle_line1": "1 66652U 25274C   25352.78629730  .00001735  00000+0  17679-3 0  9992",
        "tle_line2": "2 66652  97.7400 279.8704 0010538 234.9183 125.1049 14.91933830  3307"
      },
      "geometry": {
        "type": "Point",
        "coordinates": [
          -25.450860861848586,
          -80.46891622763593
        ]
      }
    },
    {
      "type": "Feature",
      "properties": {
        "norad_id": 66653,
        "name": "2025-274D",
        "group": "last-30-days",
        "lat": -80.19160055338276,
        "lon": -27.67626995301553,
        "alt_km": 593.8024834056532,
        "timestamp": "2025-12-19T08:58:48.083007+00:00",
        "meta_object_name": "2025-274D",
        "meta_object_id": "2025-274D",
        "meta_epoch": "2025-12-18T20:28:43.471488",
        "meta_mean_motion": 14.91933925,
        "meta_eccentricity": 0.00114401,
        "meta_inclination": 97.7396,
        "meta_ra_of_asc_node": 279.9361,
        "meta_arg_of_pericenter": 230.8702,
        "meta_mean_anomaly": 129.1501,
        "meta_ephemeris_type": 0,
        "meta_classification_type": "U",
        "meta_norad_cat_id": 66653,
        "meta_element_set_no": 999,
        "meta_rev_at_epoch": 331,
        "meta_bstar": 0.000158257,
        "meta_mean_motion_dot": 1.547e-05,
        "meta_mean_motion_ddot": 0,
        "tle_line1": "1 66653U 25274D   25352.85328092  .00001547  00000+0  15826-3 0  9991",
        "tle_line2": "2 66653  97.7396 279.9361 0011440 230.8702 129.1501 14.91933925  3310"
      },
      "geometry": {
        "type": "Point",
        "coordinates": [
          -27.67626995301553,
          -80.19160055338276
        ]
      }
    }
  ]
}